IRIDIUM 921 [-]         
1 24873U 97034E   24018.42010085  .00025800  00000+0  87830-3 0  9995
2 24873  86.3863   2.1624 0008362  98.9669 261.2526 15.30253731452343
IRIDIUM 26 [-]          
1 24903U 97043A   24017.93897195  .00000965  00000+0  32470-3 0  9994
2 24903  86.3983 327.2339 0002226  81.4949 278.6500 14.36165490382621
IRIDIUM 22 [-]          
1 24907U 97043E   24017.94784327  .00000902  00000+0  30968-3 0  9992
2 24907  86.3986 330.3462 0002222  87.4499 272.6951 14.35064954382718
DUMMY MASS 1 [-]        
1 24925U 97048A   24018.50011475  .00000846  00000+0  93603-4 0  9990
2 24925  86.3345  13.5863 0007507 154.8560 205.3031 14.86004678428762
DUMMY MASS 2 [-]        
1 24926U 97048B   24018.51232172  .00000835  00000+0  92942-4 0  9994
2 24926  86.3343  15.0968 0007801 166.5421 193.6013 14.85764933428559
IRIDIUM 29 [-]          
1 24944U 97051A   24018.48644450  .00000869  00000+0  29541-3 0  9991
2 24944  86.3970   0.0604 0002353  93.1315 267.0151 14.35523720379488
IRIDIUM 33 [-]          
1 24946U 97051C   24018.02594352  .00000658  00000+0  22782-3 0  9994
2 24946  86.3884 359.5182 0006874 337.7785  22.3112 14.34228913378750
IRIDIUM 28 [-]          
1 24948U 97051E   24017.96290608  .00000894  00000+0  29842-3 0  9991
2 24948  86.3976 358.0930 0002113  77.3179 282.8254 14.36462623379712
